[{"OBJECT_NAME":"STARLINK-36440","OBJECT_ID":"2026-008C","EPOCH":"2026-03-09T09:51:38.257344","MEAN_MOTION":15.27607504,"ECCENTRICITY":0.00030507,"INCLINATION":42.9977,"RA_OF_ASC_NODE":206.4372,"ARG_OF_PERICENTER":295.2716,"MEAN_ANOMALY":64.7819,"EPHEMERIS_TYPE":0,"CLASSIFICATION_TYPE":"U","NORAD_CAT_ID":67447,"ELEMENT_SET_NO":999,"REV_AT_EPOCH":953,"BSTAR":0.0013657814,"MEAN_MOTION_DOT":0.00037547,"MEAN_MOTION_DDOT":0},{"OBJECT_NAME":"OBJECT F","OBJECT_ID":"2026-023F","EPOCH":"2026-03-09T17:11:01.401216","MEAN_MOTION":15.23264948,"ECCENTRICITY":0.00223432,"INCLINATION":96.6318,"RA_OF_ASC_NODE":144.1544,"ARG_OF_PERICENTER":121.6413,"MEAN_ANOMALY":238.701,"EPHEMERIS_TYPE":0,"CLASSIFICATION_TYPE":"U","NORAD_CAT_ID":67679,"ELEMENT_SET_NO":999,"REV_AT_EPOCH":484,"BSTAR":0.00053756888,"MEAN_MOTION_DOT":0.00012778,"MEAN_MOTION_DDOT":0}]
